      2.10          N: GNSS NAV DATA                        RINEX VERSION / TYPE
fic2rin                                 10/09/2024 00:59:02 PGM / RUN BY / DATE
                                                            END OF HEADER
20 24 10  8  8  0  0.0  .369880348444D-03 -.341060513165D-12  .000000000000D+00
     .140000000000D+03 -.748750000000D+02  .443482758551D-08  .253049093452D+01
    -.407919287682D-05  .381205952726D-02  .816024839878D-05  .515361687279D+04
     .201600000000D+06 -.558793544769D-07  .509476812886D+00 -.465661287308D-07
     .955765120528D+00  .219156250000D+03 -.252157564842D+01 -.792854454142D-08
    -.250010413937D-10  .100000000000D+01  .233500000000D+04  .000000000000D+00
     .240000000000D+01  .000000000000D+00 -.838190317154D-08  .140000000000D+03
     .194400000000D+06  .400000000000D+01
15 24 10  8  8  0  0.0  .213254708797D-03  .443378667114D-11  .000000000000D+00
     .148000000000D+03 -.137187500000D+02  .500735143343D-08  .309448466676D+01
    -.666826963425D-06  .161498314701D-01  .722520053387D-05  .515370957375D+04
     .201600000000D+06  .162050127983D-06  .157920757325D+01 -.670552253723D-07
     .936305100431D+00  .224156250000D+03  .136484264391D+01 -.793961643118D-08
     .312870175156D-09  .100000000000D+01  .233500000000D+04  .000000000000D+00
     .240000000000D+01  .000000000000D+00 -.102445483208D-07  .148000000000D+03
     .194400000000D+06  .400000000000D+01
17 24 10  8  8  0  0.0  .602565240115D-03 -.125055521494D-10  .000000000000D+00
     .780000000000D+02  .739687500000D+02  .443911347832D-08 -.227143030150D+01
     .417046248913D-05  .135322075803D-01  .356324017048D-05  .515355769157D+04
     .201600000000D+06  .745058059692D-07 -.134538991353D+01  .197440385818D-06
     .966630041941D+00  .311500000000D+03 -.128972864699D+01 -.794497379719D-08
     .179650340301D-09  .100000000000D+01  .233500000000D+04  .000000000000D+00
     .240000000000D+01  .000000000000D+00 -.111758708954D-07  .780000000000D+02
     .194400000000D+06  .400000000000D+01
19 24 10  8  8  0  0.0  .547861680388D-03  .477484718431D-11  .000000000000D+00
     .148000000000D+03  .565937500000D+02  .458411951841D-08 -.352047679422D+00
     .299513339996D-05  .996971165296D-02  .367127358913D-05  .515374381256D+04
     .201600000000D+06  .316649675369D-07 -.130112653872D+01 -.117346644402D-06
     .965844841143D+00  .310968750000D+03  .266078979431D+01 -.833356141200D-08
     .160363822654D-09  .100000000000D+01  .233500000000D+04  .000000000000D+00
     .240000000000D+01  .000000000000D+00 -.153668224812D-07  .148000000000D+03
     .194400000000D+06  .400000000000D+01
14 24 10  8  8  0  0.0  .512840226293D-03  .841282599140D-11  .000000000000D+00
     .174000000000D+03  .605312500000D+02  .470733893670D-08  .429657522835D+00
     .321306288242D-05  .491753651295D-02  .937469303608D-05  .515370002174D+04
     .201600000000D+06  .726431608200D-07 -.243082196737D+01  .132247805595D-06
     .945103812442D+00  .191812500000D+03 -.285374267491D+01 -.805640701026D-08
    -.678599694973D-10  .100000000000D+01  .233500000000D+04  .000000000000D+00
     .240000000000D+01  .000000000000D+00 -.791624188423D-08  .174000000000D+03
     .194400000000D+06  .400000000000D+01
8  24 10  8  8  0  0.0  .377721618861D-03  .119371179608D-10  .000000000000D+00
     .980000000000D+02  .928750000000D+02  .481305762603D-08 -.217939197649D+01
     .449456274509D-05  .974880089052D-02  .473298132420D-05  .515369600677D+04
     .201600000000D+06  .428408384323D-07 -.144226412199D+01 -.191852450371D-06
     .950839228122D+00  .284687500000D+03  .369889858414D+00 -.824462913618D-08
     .249653256203D-09  .100000000000D+01  .233500000000D+04  .000000000000D+00
     .240000000000D+01  .000000000000D+00  .465661287308D-08  .980000000000D+02
     .194400000000D+06  .400000000000D+01
23 24 10  8  8  0  0.0  .337054487318D-03  .818545231596D-11  .000000000000D+00
     .600000000000D+01 -.760000000000D+02  .396802242692D-08  .950006252808D+00
    -.382401049137D-05  .478022603784D-02  .850297510624D-05  .515361857414D+04
     .201600000000D+06  .409781932831D-07  .661486775522D+00  .335276126862D-07
     .981200840599D+00  .224250000000D+03 -.293860009830D+01 -.779103881375D-08
    -.200008331150D-10  .100000000000D+01  .233500000000D+04  .000000000000D+00
     .240000000000D+01  .000000000000D+00 -.838190317154D-08  .774000000000D+03
     .194400000000D+06  .400000000000D+01
28 24 10  8  8  0  0.0 -.438572373241D-03 -.130739863380D-10  .000000000000D+00
     .400000000000D+02 -.116562500000D+02  .448018661776D-08  .133118314009D+00
    -.461935997009D-06  .435283756815D-03  .745616853237D-05  .515372634315D+04
     .201600000000D+06 -.745058059692D-07  .275178912857D+01 -.745058059692D-08
     .961686872473D+00  .236343750000D+03  .140306644627D+01 -.783889795014D-08
    -.206080012631D-09  .100000000000D+01  .233500000000D+04  .000000000000D+00
     .240000000000D+01  .000000000000D+00 -.931322574615D-08  .552000000000D+03
     .194400000000D+06  .400000000000D+01
18 24 10  8  8  0  0.0 -.657137017697D-03 -.147792889038D-11  .000000000000D+00
     .235000000000D+03 -.588125000000D+02  .440661212451D-08  .210561542756D+01
    -.293552875519D-05  .475075573195D-02  .374950468540D-05  .515373702812D+04
     .201600000000D+06 -.121071934700D-06 -.339505892549D+00  .149011611938D-06
     .974599596854D+00  .316750000000D+03 -.298223505470D+01 -.819212694926D-08
    -.140005831805D-09  .100000000000D+01  .233500000000D+04  .000000000000D+00
     .240000000000D+01  .000000000000D+00 -.838190317154D-08  .491000000000D+03
     .194400000000D+06  .400000000000D+01
2  24 10  8 10  0  0.0 -.341611914337D-03  .818545231596D-11  .000000000000D+00
     .770000000000D+02 -.335937500000D+02  .465126517244D-08 -.984102534221D+00
    -.182725489140D-05  .162077749847D-01  .364705920219D-05  .515368542480D+04
     .208800000000D+06 -.273808836937D-06 -.442981068260D+00 -.633299350739D-07
     .967058656458D+00  .319125000000D+03 -.112207827753D+01 -.851892627604D-08
     .703600736366D-10  .100000000000D+01  .233500000000D+04  .000000000000D+00
     .240000000000D+01  .000000000000D+00 -.176951289177D-07  .770000000000D+02
     .201600000000D+06  .400000000000D+01
5  24 10  8 10  0  0.0 -.189113430679D-03 -.125055521494D-11  .000000000000D+00
     .700000000000D+02 -.608750000000D+02  .414481550535D-08 -.824617124567D+00
    -.315904617310D-05  .581520784181D-02  .816024839878D-05  .515368755722D+04
     .208800000000D+06 -.102445483208D-06  .640526601693D+00  .577419996262D-07
     .973350390625D+00  .227812500000D+03  .133489200900D+01 -.789604318761D-08
     .653598653579D-10  .100000000000D+01  .233500000000D+04  .000000000000D+00
     .240000000000D+01  .000000000000D+00 -.107102096081D-07  .700000000000D+02
     .201600000000D+06  .400000000000D+01
3  24 10  8 10  0  0.0  .563612673432D-03  .122781784739D-10  .000000000000D+00
     .510000000000D+02 -.834062500000D+02  .376979988444D-08  .175750968624D+01
    -.445730984211D-05  .569685758092D-02  .826641917229D-05  .515365393448D+04
     .208800000000D+06 -.113621354103D-06  .693598138964D+00 -.102445483208D-06
     .986415586180D+00  .233875000000D+03  .116451981755D+01 -.761103131572D-08
     .114290474943D-09  .100000000000D+01  .233500000000D+04  .000000000000D+00
     .240000000000D+01  .000000000000D+00  .139698386192D-08  .510000000000D+02
     .201600000000D+06  .400000000000D+01
4  24 10  8 10  0  0.0  .457916408777D-03  .682121026330D-11  .000000000000D+00
     .114000000000D+03 -.209687500000D+02  .447125767440D-08 -.144940451541D+01
    -.111386179924D-05  .307393958792D-02  .720843672752D-05  .515369512177D+04
     .208800000000D+06  .000000000000D+00  .177110824417D+01 -.353902578354D-07
     .965534563533D+00  .243625000000D+03 -.300717644744D+01 -.784104089654D-08
     .242152943785D-09  .100000000000D+01  .233500000000D+04  .000000000000D+00
     .240000000000D+01  .000000000000D+00 -.465661287308D-08  .626000000000D+03
     .201600000000D+06  .400000000000D+01
22 24 10  8 10  0  0.0 -.691572204232D-04 -.341060513165D-11  .000000000000D+00
     .110000000000D+02  .625000000000D+02  .434910972931D-08 -.655431561561D+00
     .317394733429D-05  .140181693714D-01  .953488051891D-05  .515369009018D+04
     .208800000000D+06 -.296160578728D-06 -.236332843508D+01  .167638063431D-07
     .960481799557D+00  .200343750000D+03 -.110585062760D+01 -.801426239763D-08
     .250010413937D-10  .100000000000D+01  .233500000000D+04  .000000000000D+00
     .240000000000D+01  .000000000000D+00 -.111758708954D-07  .110000000000D+02
     .201600000000D+06  .400000000000D+01
11 24 10  8 10  0  0.0 -.742176081985D-03 -.318323145621D-11  .000000000000D+00
     .350000000000D+02 -.545000000000D+02  .451375944477D-08 -.200039337406D+01
    -.276416540146D-05  .167820882052D-02  .384636223316D-05  .515355945969D+04
     .208800000000D+06  .100582838058D-06 -.311660355802D+00  .223517417908D-07
     .966361204412D+00  .307218750000D+03 -.248046638790D+01 -.819284126472D-08
    -.553594488004D-10  .100000000000D+01  .233500000000D+04  .000000000000D+00
     .240000000000D+01  .000000000000D+00 -.884756445885D-08  .350000000000D+02
     .201600000000D+06  .400000000000D+01
12 24 10  8 10  0  0.0 -.543648377061D-03 -.272848410532D-11  .000000000000D+00
     .240000000000D+02  .689375000000D+02  .420588947789D-08  .161430087137D+01
     .349618494511D-05  .872949487530D-02  .910833477974D-05  .515358993149D+04
     .208800000000D+06 -.745058059692D-08 -.238432800090D+01 -.201165676117D-06
     .961742865662D+00  .203093750000D+03  .146359155994D+01 -.784925552443D-08
    -.471448209139D-10  .100000000000D+01  .233500000000D+04  .000000000000D+00
     .240000000000D+01  .000000000000D+00 -.125728547573D-07  .240000000000D+02
     .201600000000D+06  .400000000000D+01
